[{"OBJECT_NAME":"STARLINK-34184","OBJECT_ID":"2025-102B","EPOCH":"2026-03-09T12:22:42.655872","MEAN_MOTION":14.98330419,"ECCENTRICITY":0.000347,"INCLINATION":70.0003,"RA_OF_ASC_NODE":114.9946,"ARG_OF_PERICENTER":269.9229,"MEAN_ANOMALY":90.1532,"EPHEMERIS_TYPE":0,"CLASSIFICATION_TYPE":"U","NORAD_CAT_ID":64023,"ELEMENT_SET_NO":999,"REV_AT_EPOCH":4593,"BSTAR":0.0001242141,"MEAN_MOTION_DOT":1.389e-5,"MEAN_MOTION_DDOT":0},{"OBJECT_NAME":"ATLAS 28E DEB","OBJECT_ID":"1990-031G","EPOCH":"2026-03-09T13:30:42.820704","MEAN_MOTION":15.01077751,"ECCENTRICITY":0.00267601,"INCLINATION":90.3468,"RA_OF_ASC_NODE":293.9289,"ARG_OF_PERICENTER":41.2715,"MEAN_ANOMALY":319.0536,"EPHEMERIS_TYPE":0,"CLASSIFICATION_TYPE":"U","NORAD_CAT_ID":20575,"ELEMENT_SET_NO":999,"REV_AT_EPOCH":38014,"BSTAR":0.00040945673,"MEAN_MOTION_DOT":5.29e-5,"MEAN_MOTION_DDOT":0}]
